{
  "type": "FeatureCollection",
  "features": [
    {
      "type": "Feature",
      "properties": {
        "edge_id": "E0001",
        "trail_id": "T0001",
        "start_node_id": "N0001",
        "end_node_id": "N0002",
        "distance_m": 320.4,
        "segment_order": 1,
        "is_bidirectional": true,
        "merge_status": "cleaned",
        "elevation_start_m": 412.3,
        "elevation_end_m": 457.8,
        "elevation_gain_m": 45.5,
        "slope_percent": 14.2,
        "difficulty": "hard",
        "nearest_summit_id": null,
        "qa_status": "pass"
      },
      "geometry": {
        "type": "LineString",
        "coordinates": [
          [
            126.9651,
            37.44521
          ],
          [
            126.96545,
            37.4458
          ]
        ]
      }
    },
    {
      "type": "Feature",
      "properties": {
        "edge_id": "E0002",
        "trail_id": "T0001",
        "start_node_id": "N0002",
        "end_node_id": "N0003",
        "distance_m": 280.6,
        "segment_order": 2,
        "is_bidirectional": true,
        "merge_status": "cleaned",
        "elevation_start_m": 457.8,
        "elevation_end_m": 489.1,
        "elevation_gain_m": 31.3,
        "slope_percent": 11.2,
        "difficulty": "medium",
        "nearest_summit_id": null,
        "qa_status": "pass"
      },
      "geometry": {
        "type": "LineString",
        "coordinates": [
          [
            126.96545,
            37.4458
          ],
          [
            126.9661,
            37.4464
          ]
        ]
      }
    },
    {
      "type": "Feature",
      "properties": {
        "edge_id": "E0003",
        "trail_id": "T0002",
        "start_node_id": "N0002",
        "end_node_id": "N0004",
        "distance_m": 150.0,
        "segment_order": 1,
        "is_bidirectional": true,
        "merge_status": "cleaned",
        "elevation_start_m": 457.8,
        "elevation_end_m": 430.0,
        "elevation_gain_m": -27.8,
        "slope_percent": -18.5,
        "difficulty": "hard",
        "nearest_summit_id": null,
        "qa_status": "pass"
      },
      "geometry": {
        "type": "LineString",
        "coordinates": [
          [
            126.96545,
            37.4458
          ],
          [
            126.9659,
            37.4453
          ]
        ]
      }
    }
  ]
}