{
  "type": "FeatureCollection",
  "features": [
    {
      "type": "Feature",
      "properties": {
        "trail_id": "T0001",
        "name": "계룡산-구간1",
        "source": "OSM",
        "source_ref": "way/51808427",
        "length_m": 154.2,
        "surface": null,
        "trail_type": "trail",
        "mountain_name": "계룡산",
        "admin_region": null,
        "is_official": null,
        "raw_tags": {
          "highway": "path",
          "noname": "yes",
          "oneway": "no",
          "shoulder": "no",
          "sidewalk": "no"
        }
      },
      "geometry": {
        "type": "LineString",
        "coordinates": [
          [127.269458, 36.3638497],
          [127.2693782, 36.3638898],
          [127.269322, 36.363992],
          [127.2692595, 36.3640968],
          [127.2691345, 36.3641825],
          [127.2689726, 36.3642404],
          [127.2688695, 36.3642434],
          [127.2687726, 36.3642286],
          [127.2686921, 36.3641967],
          [127.2686378, 36.3641634],
          [127.2685639, 36.3640917],
          [127.2685367, 36.3640539],
          [127.268514, 36.3639963],
          [127.2684868, 36.3638886],
          [127.2684735, 36.3638193],
          [127.2684869, 36.3637417],
          [127.2685139, 36.3637008],
          [127.2685233, 36.3636864]
        ]
      }
    },
    {
      "type": "Feature",
      "properties": {
        "trail_id": "T0002",
        "name": "계룡산-구간2",
        "source": "OSM",
        "source_ref": "way/53259915",
        "length_m": 50.1,
        "surface": null,
        "trail_type": "trail",
        "mountain_name": "계룡산",
        "admin_region": null,
        "is_official": null,
        "raw_tags": {
          "highway": "path",
          "noname": "yes",
          "shoulder": "no",
          "sidewalk": "no"
        }
      },
      "geometry": {
        "type": "LineString",
        "coordinates": [
          [127.2696502, 36.3643205],
          [127.2697093, 36.3641728],
          [127.2697802, 36.3639947],
          [127.269813, 36.3638894]
        ]
      }
    },
    {
      "type": "Feature",
      "properties": {
        "trail_id": "T0003",
        "name": "계룡산-구간3",
        "source": "OSM",
        "source_ref": "way/1288888360",
        "length_m": 7.4,
        "surface": null,
        "trail_type": "trail",
        "mountain_name": "계룡산",
        "admin_region": null,
        "is_official": null,
        "raw_tags": {
          "highway": "path",
          "noname": "yes",
          "shoulder": "no",
          "sidewalk": "no"
        }
      },
      "geometry": {
        "type": "LineString",
        "coordinates": [
          [127.2697419, 36.3638594],
          [127.269783, 36.3638687],
          [127.269813, 36.3638894]
        ]
      }
    },
    {
      "type": "Feature",
      "properties": {
        "trail_id": "T0004",
        "name": "계룡산-구간4",
        "source": "OSM",
        "source_ref": "way/1227951456",
        "length_m": 873.1,
        "surface": null,
        "trail_type": "trail",
        "mountain_name": "계룡산",
        "admin_region": null,
        "is_official": null,
        "raw_tags": {
          "highway": "path"
        }
      },
      "geometry": {
        "type": "LineString",
        "coordinates": [
          [127.269813, 36.3638894],
          [127.2698142, 36.3636398],
          [127.2701168, 36.3633218],
          [127.2701425, 36.3631819],
          [127.2704931, 36.3629068],
          [127.2707844, 36.3626869],
          [127.2715066, 36.3628384],
          [127.2719739, 36.3628775],
          [127.2723502, 36.3628531],
          [127.272859, 36.3628648],
          [127.2734898, 36.36306],
          [127.2737108, 36.3631689],
          [127.2738932, 36.3632415],
          [127.2743095, 36.363359],
          [127.274612, 36.363511],
          [127.2747, 36.3635853],
          [127.2749725, 36.3636493],
          [127.2753523, 36.3638013],
          [127.2754725, 36.3638635],
          [127.2757429, 36.3638756],
          [127.2759574, 36.3639983],
          [127.2761055, 36.3641694],
          [127.2762643, 36.3643076],
          [127.2765904, 36.3643681],
          [127.2767728, 36.3645616],
          [127.2773007, 36.3649504],
          [127.2776247, 36.3652389]
        ]
      }
    }
  ]
}